0 ARIANE 1 DEB
1 26681U 84023G   13283.24859904  .00000023  00000-0  26201-2 0  7882
2 26681 008.9836 322.5712 6862409 016.0351 008.5800 02.58797383140426
0 ARIANE 1 DEB
1 26681U 84023G   13285.94165504  .00000002  00000-0  26201-2 0  7895
2 26681 008.9838 321.4295 6860335 018.3229 357.6146 02.58799029140494
0 ARIANE 1 DEB
1 26681U 84023G   13286.05025396  .00000002  00000-0  25447-2 0  7905
2 26681 008.9800 321.3816 6862102 018.3961 098.7813 02.58797914140493
0 ARIANE 1 DEB
1 26681U 84023G   13288.27188185  .00000067  00000-0  31913-2 0  7914
2 26681 008.9767 320.4194 6861823 020.2882 008.6041 02.58799480140557
0 ARIANE 1 DEB
1 26681U 84023G   13290.20290696  .00000075  00000-0  29260-2 0  7923
2 26681 008.9741 319.5823 6861531 021.9355 007.6877 02.58801346140603
0 ARIANE 1 DEB
1 26681U 84023G   13295.22442516  .00000032  00000-0  27177-2 0  7939
2 26681 008.9671 317.4029 6861407 026.2129 006.1428 02.58804568140738
